OBJECT_NAME,OBJECT_ID,EPOCH,MEAN_MOTION,ECCENTRICITY,INCLINATION,RA_OF_ASC_NODE,ARG_OF_PERICENTER,MEAN_ANOMALY,EPHEMERIS_TYPE,CLASSIFICATION_TYPE,NORAD_CAT_ID,ELEMENT_SET_NO,REV_AT_EPOCH,BSTAR,MEAN_MOTION_DOT,MEAN_MOTION_DDOT
IRIDIUM 138,2017-083B,2026-07-23T14:18:23.097888,14.34217946,.0002095,86.3999,306.4984,96.4984,263.6451,0,U,43071,999,44935,.32312E-4,.11E-5,0
IRIDIUM 116,2017-083C,2026-07-23T15:13:11.227008,14.34218412,.0002548,86.3984,306.7670,96.2623,263.8863,0,U,43072,999,44939,.61915E-4,.193E-5,0
IRIDIUM 130,2017-083D,2026-07-23T12:47:03.152832,14.34218485,.0002361,86.3992,307.0882,99.6170,260.5293,0,U,43073,999,44932,.45606E-4,.148E-5,0
IRIDIUM 151,2017-083E,2026-07-23T15:31:27.132384,14.34218308,.0002292,86.3988,306.8203,94.8757,265.2701,0,U,43074,999,44936,.2387E-4,.87E-6,0
IRIDIUM 134,2017-083F,2026-07-23T13:05:19.167072,14.34217609,.000216,86.3987,306.8712,96.6093,263.5349,0,U,43075,999,44931,-.43171E-5,.8E-7,0
IRIDIUM 137,2017-083G,2026-07-23T16:44:31.260192,14.34217756,.0002622,86.3989,306.9011,89.4196,270.7300,0,U,43076,999,44940,-.55019E-6,.18E-6,0
IRIDIUM 141,2017-083H,2026-07-23T16:35:23.131680,14.34218533,.0002145,86.3984,306.7324,93.9570,266.1871,0,U,43077,999,44940,.46512E-4,.15E-5,0
IRIDIUM 153,2017-083J,2026-07-23T15:26:31.394688,14.34217682,.0002148,86.3951,275.2298,96.5583,263.5858,0,U,43078,999,45050,-.15E-5,.16E-6,0
IRIDIUM 131,2017-083K,2026-07-23T07:54:47.160864,14.34217999,.0002204,86.3990,307.0718,93.3563,266.7885,0,U,43079,999,44928,.9298E-5,.46E-6,0
IRIDIUM 144,2018-030A,2026-07-23T15:35:39.395328,14.34218139,.0002413,86.3949,275.1554,95.6557,264.4914,0,U,43249,999,43536,.32099E-4,.11E-5,0
IRIDIUM 149,2018-030B,2026-07-23T10:43:23.395584,14.34217846,.0002231,86.3947,275.2068,93.9513,266.1938,0,U,43250,999,43535,.3611E-5,.3E-6,0
IRIDIUM 157,2018-030C,2026-07-23T14:31:43.421088,14.34217778,.0002264,86.3949,275.1946,94.7647,265.3807,0,U,43251,999,43535,-.28557E-5,.12E-6,0
IRIDIUM 140,2018-030D,2026-07-23T13:18:39.409056,14.34218168,.0002272,86.3949,275.2283,96.3084,263.8370,0,U,43252,999,43540,.27068E-4,.96E-6,0
IRIDIUM 145,2018-030E,2026-07-23T16:21:19.466784,14.34218079,.0002593,86.3949,275.1473,96.6619,263.4871,0,U,43253,999,43535,.26381E-4,.94E-6,0
IRIDIUM 146,2018-030F,2026-07-23T10:52:31.471392,14.34217839,.0002366,86.3949,275.2550,94.8952,265.2514,0,U,43254,999,43533,.10997E-4,.51E-6,0
IRIDIUM 148,2018-030G,2026-07-23T13:27:47.419200,14.34218131,.0002307,86.3951,275.2537,92.7807,267.3652,0,U,43255,999,43538,.96021E-5,.47E-6,0
IRIDIUM 142,2018-030H,2026-07-23T16:03:03.406752,14.34218685,.0002447,86.3946,275.0961,94.9727,265.1748,0,U,43256,999,43536,.53708E-4,.17E-5,0
IRIDIUM 150,2018-030J,2026-07-23T06:55:03.490176,14.34217500,.0002345,86.3950,275.3727,96.0972,264.0491,0,U,43257,999,43533,.9582E-5,.47E-6,0
IRIDIUM 143,2018-030K,2026-07-23T14:49:59.441376,14.34217786,.000237,86.3952,275.3287,95.6448,264.5018,0,U,43258,999,43531,-.99974E-6,.17E-6,0
IRIDIUM 161,2018-047C,2026-07-23T15:17:18.959136,14.43278818,.0002121,86.4452,73.2256,81.2358,278.9083,0,U,43478,999,43039,.63893E-4,.235E-5,0
IRIDIUM 152,2018-047D,2026-07-23T04:07:54.242112,14.34217250,.0001962,86.3924,73.2813,84.3346,275.8073,0,U,43479,999,42764,-.21741E-4,-.41E-6,0
IRIDIUM 147,2018-047E,2026-07-23T14:19:50.280672,14.34217503,.0002314,86.3930,73.1096,87.0481,273.0980,0,U,43480,999,42770,-.50494E-5,.6E-7,0
IRIDIUM 110,2018-047F,2026-07-23T12:48:30.087648,14.34217988,.000197,86.3933,73.2291,79.3192,280.8226,0,U,43481,999,42768,.44591E-4,.145E-5,0
IRIDIUM 162,2018-047G,2026-07-23T03:29:22.451136,14.43281520,.0002176,86.4453,73.3219,86.7843,273.3606,0,U,43482,999,43031,.67795E-4,.248E-5,0
IRIDIUM 160,2018-061A,2026-07-23T06:29:06.366048,14.34218313,.0002187,86.3938,41.7027,87.0743,273.0703,0,U,43569,999,41854,.33486E-4,.114E-5,0
IRIDIUM 166,2018-061B,2026-07-23T10:26:34.610784,14.34216774,.0002181,86.3932,41.5837,89.5985,270.5460,0,U,43570,999,41859,-.24348E-4,-.48E-6,0
IRIDIUM 158,2018-061C,2026-07-23T06:19:58.411200,14.34218554,.000211,86.3936,41.6652,89.6604,270.4834,0,U,43571,999,41853,.51297E-4,.163E-5,0
IRIDIUM 165,2018-061D,2026-07-23T11:57:54.504864,14.34217994,.0002294,86.3941,41.6143,90.5520,269.5938,0,U,43572,999,41859,.26301E-4,.93E-6,0
IRIDIUM 155,2018-061E,2026-07-23T06:01:42.426336,14.34217967,.0002198,86.3934,41.5848,91.0810,269.0638,0,U,43573,999,41852,.14436E-4,.6E-6,0
IRIDIUM 154,2018-061F,2026-07-23T02:13:22.455264,14.34218177,.00022941,86.3938,41.7867,88.8519,271.2940,0,U,43574,999,41855,.30480271E-4,.105E-5,0
IRIDIUM 163,2018-061G,2026-07-23T01:45:58.420512,14.34218370,.00021143,86.3935,41.7086,88.0586,272.0852,0,U,43575,999,41852,.31109938E-4,.107E-5,0
